#cP2015 12 17  0  0  0.00000000      96 ORBIT IGb08 HLM  IGS
## 1875 345600.00000000   900.00000000 57373 0.0000000000000
+   31   G01G02G03G05G06G07G08G09G10G11G12G13G14G15G16G17G18
+        G19G20G21G22G23G24G25G26G27G28G29G30G31G32  0  0  0
+          0  0  0  0  0  0  0  0  0  0  0  0  0  0  0  0  0
+          0  0  0  0  0  0  0  0  0  0  0  0  0  0  0  0  0
+          0  0  0  0  0  0  0  0  0  0  0  0  0  0  0  0  0
++         2  2  0  2  2  2  2  2  4  2  2  2  2  2  2  2  2
++         2  2  2  2  2  2  2  2  2  2  2  2  2  2  0  0  0
++         0  0  0  0  0  0  0  0  0  0  0  0  0  0  0  0  0
++         0  0  0  0  0  0  0  0  0  0  0  0  0  0  0  0  0
++         0  0  0  0  0  0  0  0  0  0  0  0  0  0  0  0  0
%c G  cc GPS ccc cccc cccc cccc cccc ccccc ccccc ccccc ccccc
%c cc cc ccc ccc cccc cccc cccc cccc ccccc ccccc ccccc ccccc
%f  1.2500000  1.025000000  0.00000000000  0.000000000000000
%f  0.0000000  0.000000000  0.00000000000  0.000000000000000
%i    0    0    0    0      0      0      0      0         0
%i    0    0    0    0      0      0      0      0         0
/* FINAL ORBIT COMBINATION FROM WEIGHTED AVERAGE OF:        
/* cod emr esa gfz grg jpl mit ngs sio                      
/* REFERENCED TO IGS TIME (IGST) AND TO WEIGHTED MEAN POLE: 
/* PCV:IGS08_1869 OL/AL:FES2004  NONE     Y  ORB:CMB CLK:CMB
*  2015 12 17  3 45  0.00000000
PG01   -389.437510 -15665.297351 -21493.821562      6.822358  5  5  4 107       
PG02 -20389.208279  14599.168201   8459.502725    597.977486  8  8  6  88       
PG03  -8080.368661 -20562.286701 -14725.920401      1.183898  6  6     98       
PG05 -10472.563109  11446.288170  21491.714008   -164.338586  6  5  4 113       
PG06 -25537.998294   5937.265994  -4201.528571    113.441896  4  6  3  96       
PG07 -16769.079465  -8367.938400  19100.651798    477.101167  4  5  6  56       
PG08   5630.078149 -25928.762066   1262.142437    -16.502573  7  8  6 100       
PG09  -9838.033453 -16863.491714  17988.314319     30.165680  4  5  7 121       
PG10  22325.682837   7889.899459 -12070.732833     43.479605 10 13 10  67       
PG11   2813.494702 -20411.905558 -17279.973152   -622.152844  7  5  5  76       
PG12   5461.424229  20196.839229 -16596.537646    353.876312  7  8  7 111       
PG13 -12610.675094  21872.610804   8266.732898   -171.910102  6  9  6 105       
PG14  15229.890825    642.982143 -21488.536361     14.993253  6  4  6  97       
PG15  -2407.982366  26230.868304  -1410.425261   -287.573097  6 10  6 112       
PG16  11039.710524  -9496.231343  22140.558682    -56.709929  7  7  4 112       
PG17 -14864.530928   -948.607559 -21659.023216   -196.762835  6  7  7 109       
PG18  21105.160836  16313.018371   -855.860380    463.455195  7  7  6 106       
PG19 -12736.284583  -9119.504473 -21632.249166   -523.810543  5  5  5 105       
PG20   6557.002584  19852.394020  16183.256306    378.896827  5  8  4 110       
PG21  19911.337883   6172.637588  17352.436399   -499.943105  7  7  5 120       
PG22  22048.521745   4119.881099 -14148.897407    419.813930  4  6  6 114       
PG23  -1985.976301 -24708.855645   9084.907927   -150.116432  7  8  4 119       
PG24  -2645.322964  16625.137248 -20541.676263     -9.443552  8  7  8 111       
PG25  16745.053996  19840.623144  -6131.509482    -84.094385  6  5  4 106       
PG26  18544.019045  -1647.955554  18958.224280   -168.858058  6  6  5 112       
PG27  11680.785330 -20957.684397  11222.711463     45.003485  5  7  6 100       
PG28 -21234.751432 -10632.886659 -11324.606923    488.793979  6  7  6 129       
PG29   6768.106731  19614.606725  16617.543747    648.553914  5  7  7 104       
PG30 -24025.953540  -1709.860832  11280.387038     71.974394  6  6  5 103       
PG31  25849.915426  -6417.114979  -2419.398664    290.940946  4  8  8 115       
PG32   3149.187449 -17356.239564 -20074.719930     50.330903  7  6  5  93       
*  2015 12 17  4  0  0.00000000
PG01   1883.281140 -16459.431657 -20789.499713      6.823175  6  5  3  95       
PG02 -21230.542402  14616.374566   5777.388403    597.978064  8  8  6  87       
PG03  -6564.110927 -19576.953929 -16692.998247      1.179150  6  7    100       
PG05 -12396.852931   9907.269405  21249.192536   -164.335048  6  4  5 112       
PG06 -25030.512112   5479.797848  -6967.157925    113.447644  4  6  4  87       
PG07 -14710.187036  -9198.951599  20347.800676    477.099901  4  5  6  72       
PG08   5833.664294 -25594.225641   4098.067826    -16.503682  7  8  5 109       
PG09  -9386.839788 -18781.076033  16245.935101     30.172976  5  6  7 120       
PG10  23156.580841   8836.595396  -9601.565429     43.484138 10 13 10  82       
PG11   4340.445693 -21426.755518 -15593.098342   -622.154983  7  5  5  72       
PG12   3928.331821  18957.352973 -18387.360692    353.879076  6  9  7 117       
PG13 -12508.876342  20752.825729  10851.845968   -171.912292  6  8  6 102       
PG14  14677.431914   3104.424892 -21668.678928     14.990845  6  2  6 108       
PG15  -2769.388271  26183.252320   1406.506735   -287.575094  6 10  5 101       
PG16  12891.890220  -7781.931925  21840.277452    -56.706626  7  7  5 100       
PG17 -14377.145688  -3451.320711 -21750.783201   -196.763681  5  7  6 117       
PG18  20897.010314  16576.633374   1909.537831    463.458665  7  8  6  83       
PG19 -12081.292320 -11415.466574 -20859.807942   -523.810846  5  5  5 113       
PG20   4792.159549  18914.261169  17831.681378    378.899056  5  8  4  97       
PG21  18173.474697   7054.152997  18892.629193   -499.944908  6  6  4 114       
PG22  23096.306786   5268.142507 -11977.720656    419.811598  4  6  6 110       
PG23  -1551.453776 -25531.356433   6423.731929   -150.118199  7  8  4 114       
PG24  -4804.792294  17392.714313 -19468.894319     -9.443972  7  7  8 115       
PG25  15979.560564  19453.902247  -8840.376051    -84.099861  6  5  4 110       
PG26  20084.997708   -246.387582  17395.675992   -168.873817  6  6  5 101       
PG27  11664.727438 -19517.848072  13593.495372     45.006591  5  7  6 126       
PG28 -22020.436146 -11590.703834  -8738.186028    488.796093  6  7  6 122       
PG29   6257.496257  21324.618694  14588.505099    648.555004  5  8  7  93       
PG30 -22732.078279  -2340.207706  13601.955009     71.979034  5  6  4  88       
PG31  25491.714765  -6088.809185  -5234.906175    290.939402  4  8  8 116       
PG32   4888.021925 -15810.474525 -20939.173370     50.341636  6  6  6 103       
*  2015 12 17  4 15  0.00000000
PG01   4022.214279 -17331.488347 -19728.379740      6.824003  6  5  3  99       
PG02 -21795.634107  14532.873371   2994.235322    597.978440  8  9  6  96       
PG03  -4830.752579 -18551.794650 -18372.541397      1.174430  6  7     99       
PG05 -14353.972449   8494.523935  20639.420145   -164.331944  5  4  5 110       
PG06 -24269.334171   4868.022802  -9612.785799    113.453446  4  6  4  64       
PG07 -12585.937657 -10189.149630  21251.818740    477.098363  4  5  6  85       
PG08   6025.905507 -24955.169897   6863.531082    -16.505103  7  8  5 102       
PG09  -9053.525981 -20506.960971  14223.582272     30.180306  4  6  7 126       
PG10  23799.554182   9572.510969  -6967.515140     43.488649  9 13 10  86       
PG11   5685.281426 -22365.256226 -13646.563627   -622.156992  7  6  5  91       
PG12   2180.993800  17693.512510 -19866.711272    353.881710  6  9  8 120       
PG13 -12410.812365  19351.189048  13249.968649   -171.914746  5  8  5  95       
PG14  14254.371240   5588.614246 -21467.236499     14.988818  6     6 116       
PG15  -3120.012035  25833.886104   4198.684853   -287.576901  5 10  5 100       
PG16  14792.437614  -6213.185745  21162.849063    -56.703948  6  8  5  96       
PG17 -14026.083404  -5962.773450 -21457.121898   -196.764436  5  6  6 106       
PG18  20449.666053  16674.768937   4642.777566    463.462119  7  8  5 102       
PG19 -11570.056334 -13642.944739 -19732.930276   -523.811020  5  5  5  89       
PG20   2840.533801  17971.148893  19168.800534    378.901864  5  8  5 104       
PG21  16346.293598   8086.497019  20128.306468   -499.946904  6  6  4 122       
PG22  23982.913930   6221.026275  -9600.040873    419.809620  4  6  5 111       
PG23  -1185.571418 -26066.897534   3649.651262   -150.119842  7  8  4 121       
PG24  -6797.973305  18207.870409 -18060.526408     -9.444333  7  7  8 111       
PG25  14951.891680  18938.074136 -11399.170850    -84.105348  6  5  5 108       
PG26  21538.304313    961.565309  15534.176286   -168.889640  6  6  5 103       
PG27  11702.224722 -17824.456053  15728.520548     45.009743  4  6  6 105       
PG28 -22623.110464 -12303.208203  -5998.118096    488.798932  6  7  6 109       
PG29   5876.850234  22818.505828  12309.083683    648.556360  6  9  7  96       
PG30 -21238.713776  -3123.636388  15690.319167     71.983663  4  6  3  93       
PG31  24864.485731  -5618.960842  -7961.961539    290.938135  4  7  7 117       
PG32   6765.591513 -14301.968711 -21448.502423     50.352615  6  6  6 102       
EOF
